[{"OBJECT_NAME":"STARLINK-34580","OBJECT_ID":"2025-218T","EPOCH":"2026-03-09T13:56:44.346912","MEAN_MOTION":15.05645141,"ECCENTRICITY":0.0001593,"INCLINATION":97.6022,"RA_OF_ASC_NODE":292.8504,"ARG_OF_PERICENTER":85.4453,"MEAN_ANOMALY":274.6956,"EPHEMERIS_TYPE":0,"CLASSIFICATION_TYPE":"U","NORAD_CAT_ID":65808,"ELEMENT_SET_NO":999,"REV_AT_EPOCH":2495,"BSTAR":0.00060789,"MEAN_MOTION_DOT":8.72e-5,"MEAN_MOTION_DDOT":0},{"OBJECT_NAME":"SL-18 R\/B","OBJECT_ID":"2001-007B","EPOCH":"2026-03-09T23:25:11.323200","MEAN_MOTION":15.07301441,"ECCENTRICITY":0.00085554,"INCLINATION":97.6926,"RA_OF_ASC_NODE":87.6817,"ARG_OF_PERICENTER":353.225,"MEAN_ANOMALY":6.886,"EPHEMERIS_TYPE":0,"CLASSIFICATION_TYPE":"U","NORAD_CAT_ID":26703,"ELEMENT_SET_NO":999,"REV_AT_EPOCH":64619,"BSTAR":0.00021543689,"MEAN_MOTION_DOT":3.19e-5,"MEAN_MOTION_DDOT":0}]
